ORBCOMM FM05            
1 25117U 97084F   25265.48916325  .00002331  00000+0  68505-3 0  9997
2 25117  45.0140 260.7757 0004159 315.5603  44.4915 14.46227673454695
ORBCOMM FM06            
1 25118U 97084G   25265.26728747  .00002535  00000+0  73916-3 0  9991
2 25118  45.0135 261.4695 0003308 305.4867  68.7533 14.46376376455583
ORBCOMM FM07            
1 25119U 97084H   25265.27776649  .00002352  00000+0  68857-3 0  9992
2 25119  45.0128 262.1814 0005000 316.4633  43.5823 14.46384419455570
ORBCOMM FM03            
1 25158U 98007B   25265.46732751  .00001559  00000+0  59005-3 0  9991
2 25158 107.9642 335.4729 0042616  78.8502 281.7425 14.34707385437997
ORBCOMM FM04            
1 25159U 98007C   25265.43487446  .00001410  00000+0  53682-3 0  9998
2 25159 107.9628 338.6918 0038387  76.1444 284.3963 14.34951581438179
ORBCOMM FM17            
1 25413U 98046A   25265.43575222  .00001385  00000+0  52800-3 0  9996
2 25413  44.9935 158.5849 0003987 346.3040  13.7698 14.35268088417144
ORBCOMM FM18            
1 25414U 98046B   25265.49892997  .00001945  00000+0  67280-3 0  9994
2 25414  44.9928  73.0630 0004564  65.3605 294.7718 14.38790132418264
ORBCOMM FM19            
1 25415U 98046C   25265.53705951  .00001912  00000+0  66469-3 0  9995
2 25415  44.9939  75.0330 0003325  63.6269 343.2305 14.38602339418226
